[{"OBJECT_NAME":"STARLINK-36909","OBJECT_ID":"2026-037Q","EPOCH":"2026-03-07T04:00:03.000096","MEAN_MOTION":15.89023416,"ECCENTRICITY":0.0001476,"INCLINATION":42.9997,"RA_OF_ASC_NODE":213.9551,"ARG_OF_PERICENTER":272.4742,"MEAN_ANOMALY":45.2529,"EPHEMERIS_TYPE":0,"CLASSIFICATION_TYPE":"U","NORAD_CAT_ID":67946,"ELEMENT_SET_NO":999,"REV_AT_EPOCH":279,"BSTAR":-0.0058058,"MEAN_MOTION_DOT":-0.01488372,"MEAN_MOTION_DDOT":0},{"OBJECT_NAME":"STARLINK-36920","OBJECT_ID":"2026-037R","EPOCH":"2026-03-07T04:00:03.000096","MEAN_MOTION":15.89128862,"ECCENTRICITY":0.0001412,"INCLINATION":43,"RA_OF_ASC_NODE":213.9458,"ARG_OF_PERICENTER":268.6228,"MEAN_ANOMALY":52.7031,"EPHEMERIS_TYPE":0,"CLASSIFICATION_TYPE":"U","NORAD_CAT_ID":67947,"ELEMENT_SET_NO":999,"REV_AT_EPOCH":279,"BSTAR":-0.0058193,"MEAN_MOTION_DOT":-0.01498212,"MEAN_MOTION_DDOT":0},{"OBJECT_NAME":"STARLINK-36873","OBJECT_ID":"2026-037S","EPOCH":"2026-03-07T04:00:03.000096","MEAN_MOTION":15.89279214,"ECCENTRICITY":0.0001539,"INCLINATION":43.0001,"RA_OF_ASC_NODE":213.9379,"ARG_OF_PERICENTER":273.2589,"MEAN_ANOMALY":51.2168,"EPHEMERIS_TYPE":0,"CLASSIFICATION_TYPE":"U","NORAD_CAT_ID":67948,"ELEMENT_SET_NO":999,"REV_AT_EPOCH":279,"BSTAR":-0.0058572,"MEAN_MOTION_DOT":-0.01549199,"MEAN_MOTION_DDOT":0},{"OBJECT_NAME":"STARLINK-36863","OBJECT_ID":"2026-037T","EPOCH":"2026-03-07T04:00:03.000096","MEAN_MOTION":15.89370011,"ECCENTRICITY":0.0001696,"INCLINATION":43.0001,"RA_OF_ASC_NODE":213.9288,"ARG_OF_PERICENTER":271.451,"MEAN_ANOMALY":56.6524,"EPHEMERIS_TYPE":0,"CLASSIFICATION_TYPE":"U","NORAD_CAT_ID":67949,"ELEMENT_SET_NO":999,"REV_AT_EPOCH":279,"BSTAR":-0.0058102,"MEAN_MOTION_DOT":-0.01512463,"MEAN_MOTION_DDOT":0},{"OBJECT_NAME":"STARLINK-36887","OBJECT_ID":"2026-037U","EPOCH":"2026-03-07T04:00:03.000096","MEAN_MOTION":15.89458256,"ECCENTRICITY":0.0001564,"INCLINATION":43,"RA_OF_ASC_NODE":213.9191,"ARG_OF_PERICENTER":268.5228,"MEAN_ANOMALY":63.2868,"EPHEMERIS_TYPE":0,"CLASSIFICATION_TYPE":"U","NORAD_CAT_ID":67950,"ELEMENT_SET_NO":999,"REV_AT_EPOCH":279,"BSTAR":-0.0057778,"MEAN_MOTION_DOT":-0.01510963,"MEAN_MOTION_DDOT":0},{"OBJECT_NAME":"STARLINK-36897","OBJECT_ID":"2026-037V","EPOCH":"2026-03-07T04:00:03.000096","MEAN_MOTION":15.89580821,"ECCENTRICITY":0.0001437,"INCLINATION":43.0001,"RA_OF_ASC_NODE":213.9111,"ARG_OF_PERICENTER":268.1918,"MEAN_ANOMALY":66.9747,"EPHEMERIS_TYPE":0,"CLASSIFICATION_TYPE":"U","NORAD_CAT_ID":67951,"ELEMENT_SET_NO":999,"REV_AT_EPOCH":279,"BSTAR":-0.0057737,"MEAN_MOTION_DOT":-0.01550625,"MEAN_MOTION_DDOT":0},{"OBJECT_NAME":"STARLINK-36381","OBJECT_ID":"2026-037W","EPOCH":"2026-03-07T04:00:03.000096","MEAN_MOTION":15.89848365,"ECCENTRICITY":0.0001707,"INCLINATION":43.0003,"RA_OF_ASC_NODE":213.8952,"ARG_OF_PERICENTER":271.8766,"MEAN_ANOMALY":69.5846,"EPHEMERIS_TYPE":0,"CLASSIFICATION_TYPE":"U","NORAD_CAT_ID":67952,"ELEMENT_SET_NO":999,"REV_AT_EPOCH":279,"BSTAR":-0.0056961,"MEAN_MOTION_DOT":-0.01518717,"MEAN_MOTION_DDOT":0},{"OBJECT_NAME":"STARLINK-36824","OBJECT_ID":"2026-037X","EPOCH":"2026-03-07T04:00:03.000096","MEAN_MOTION":15.89712072,"ECCENTRICITY":0.0001469,"INCLINATION":43.0002,"RA_OF_ASC_NODE":213.903,"ARG_OF_PERICENTER":271.9049,"MEAN_ANOMALY":66.4207,"EPHEMERIS_TYPE":0,"CLASSIFICATION_TYPE":"U","NORAD_CAT_ID":67953,"ELEMENT_SET_NO":999,"REV_AT_EPOCH":279,"BSTAR":-0.0057234,"MEAN_MOTION_DOT":-0.01515562,"MEAN_MOTION_DDOT":0},{"OBJECT_NAME":"STARLINK-36869","OBJECT_ID":"2026-037Y","EPOCH":"2026-03-07T04:00:03.000096","MEAN_MOTION":15.89996489,"ECCENTRICITY":0.0001598,"INCLINATION":43.0001,"RA_OF_ASC_NODE":213.8876,"ARG_OF_PERICENTER":273.3178,"MEAN_ANOMALY":70.9813,"EPHEMERIS_TYPE":0,"CLASSIFICATION_TYPE":"U","NORAD_CAT_ID":67954,"ELEMENT_SET_NO":999,"REV_AT_EPOCH":279,"BSTAR":-0.0055965,"MEAN_MOTION_DOT":-0.01505658,"MEAN_MOTION_DDOT":0},{"OBJECT_NAME":"STARLINK-36872","OBJECT_ID":"2026-037Z","EPOCH":"2026-03-07T04:00:03.000096","MEAN_MOTION":15.90225165,"ECCENTRICITY":0.0001616,"INCLINATION":43.0001,"RA_OF_ASC_NODE":213.8703,"ARG_OF_PERICENTER":273.4879,"MEAN_ANOMALY":77.5525,"EPHEMERIS_TYPE":0,"CLASSIFICATION_TYPE":"U","NORAD_CAT_ID":67955,"ELEMENT_SET_NO":999,"REV_AT_EPOCH":279,"BSTAR":-0.0055622,"MEAN_MOTION_DOT":-0.0151307,"MEAN_MOTION_DDOT":0},{"OBJECT_NAME":"STARLINK-36918","OBJECT_ID":"2026-037AA","EPOCH":"2026-03-07T04:00:03.000096","MEAN_MOTION":15.90332984,"ECCENTRICITY":0.0001498,"INCLINATION":43.0003,"RA_OF_ASC_NODE":213.8616,"ARG_OF_PERICENTER":273.0436,"MEAN_ANOMALY":81.4908,"EPHEMERIS_TYPE":0,"CLASSIFICATION_TYPE":"U","NORAD_CAT_ID":67956,"ELEMENT_SET_NO":999,"REV_AT_EPOCH":279,"BSTAR":-0.0055714,"MEAN_MOTION_DOT":-0.0152239,"MEAN_MOTION_DDOT":0},{"OBJECT_NAME":"STARLINK-36829","OBJECT_ID":"2026-037AB","EPOCH":"2026-03-07T04:00:03.000096","MEAN_MOTION":15.90121467,"ECCENTRICITY":0.0001678,"INCLINATION":43,"RA_OF_ASC_NODE":213.8797,"ARG_OF_PERICENTER":273.3845,"MEAN_ANOMALY":74.1248,"EPHEMERIS_TYPE":0,"CLASSIFICATION_TYPE":"U","NORAD_CAT_ID":67957,"ELEMENT_SET_NO":999,"REV_AT_EPOCH":279,"BSTAR":-0.0055699,"MEAN_MOTION_DOT":-0.01507957,"MEAN_MOTION_DDOT":0},{"OBJECT_NAME":"STARLINK-36799","OBJECT_ID":"2026-037AC","EPOCH":"2026-03-07T04:00:03.000096","MEAN_MOTION":15.90449944,"ECCENTRICITY":0.0001725,"INCLINATION":42.9998,"RA_OF_ASC_NODE":213.854,"ARG_OF_PERICENTER":276.8415,"MEAN_ANOMALY":80.8896,"EPHEMERIS_TYPE":0,"CLASSIFICATION_TYPE":"U","NORAD_CAT_ID":67958,"ELEMENT_SET_NO":999,"REV_AT_EPOCH":279,"BSTAR":-0.005494,"MEAN_MOTION_DOT":-0.01512314,"MEAN_MOTION_DDOT":0},{"OBJECT_NAME":"STARLINK-36834","OBJECT_ID":"2026-037AD","EPOCH":"2026-03-07T04:00:03.000096","MEAN_MOTION":15.90670108,"ECCENTRICITY":0.0001483,"INCLINATION":43.0001,"RA_OF_ASC_NODE":213.836,"ARG_OF_PERICENTER":270.8311,"MEAN_ANOMALY":93.8479,"EPHEMERIS_TYPE":0,"CLASSIFICATION_TYPE":"U","NORAD_CAT_ID":67959,"ELEMENT_SET_NO":999,"REV_AT_EPOCH":279,"BSTAR":-0.0055233,"MEAN_MOTION_DOT":-0.01534001,"MEAN_MOTION_DDOT":0},{"OBJECT_NAME":"STARLINK-36841","OBJECT_ID":"2026-037AE","EPOCH":"2026-03-07T04:00:03.000096","MEAN_MOTION":15.90571304,"ECCENTRICITY":0.0001586,"INCLINATION":42.9998,"RA_OF_ASC_NODE":213.8451,"ARG_OF_PERICENTER":274.571,"MEAN_ANOMALY":86.5062,"EPHEMERIS_TYPE":0,"CLASSIFICATION_TYPE":"U","NORAD_CAT_ID":67960,"ELEMENT_SET_NO":999,"REV_AT_EPOCH":279,"BSTAR":-0.0055127,"MEAN_MOTION_DOT":-0.01524831,"MEAN_MOTION_DDOT":0},{"OBJECT_NAME":"STARLINK-36912","OBJECT_ID":"2026-038A","EPOCH":"2026-03-07T04:00:03.000096","MEAN_MOTION":15.95742011,"ECCENTRICITY":0.0001027,"INCLINATION":97.2751,"RA_OF_ASC_NODE":76.2531,"ARG_OF_PERICENTER":75.466,"MEAN_ANOMALY":270.2215,"EPHEMERIS_TYPE":0,"CLASSIFICATION_TYPE":"U","NORAD_CAT_ID":67961,"ELEMENT_SET_NO":999,"REV_AT_EPOCH":279,"BSTAR":-0.0042481,"MEAN_MOTION_DOT":-0.01688452,"MEAN_MOTION_DDOT":0.00082586}]
