STARLINK-36909          
1 67946U 26037Q   26066.16670139 -.01488372  00000+0 -58058-2 0  9995
2 67946  42.9997 213.9551 0001476 272.4742  45.2529 15.89023416  2790
STARLINK-36920          
1 67947U 26037R   26066.16670139 -.01498212  00000+0 -58193-2 0  9990
2 67947  43.0000 213.9458 0001412 268.6228  52.7031 15.89128862  2792
STARLINK-36873          
1 67948U 26037S   26066.16670139 -.01549199  00000+0 -58572-2 0  9993
2 67948  43.0001 213.9379 0001539 273.2589  51.2168 15.89279214  2791
STARLINK-36863          
1 67949U 26037T   26066.16670139 -.01512463  00000+0 -58102-2 0  9997
2 67949  43.0001 213.9288 0001696 271.4510  56.6524 15.89370011  2791
STARLINK-36887          
1 67950U 26037U   26066.16670139 -.01510963  00000+0 -57778-2 0  9990
2 67950  43.0000 213.9191 0001564 268.5228  63.2868 15.89458256  2795
STARLINK-36897          
1 67951U 26037V   26066.16670139 -.01550625  00000+0 -57737-2 0  9995
2 67951  43.0001 213.9111 0001437 268.1918  66.9747 15.89580821  2790
STARLINK-36381          
1 67952U 26037W   26066.16670139 -.01518717  00000+0 -56961-2 0  9990
2 67952  43.0003 213.8952 0001707 271.8766  69.5846 15.89848365  2796
STARLINK-36824          
1 67953U 26037X   26066.16670139 -.01515562  00000+0 -57234-2 0  9990
2 67953  43.0002 213.9030 0001469 271.9049  66.4207 15.89712072  2796
STARLINK-36869          
1 67954U 26037Y   26066.16670139 -.01505658  00000+0 -55965-2 0  9995
2 67954  43.0001 213.8876 0001598 273.3178  70.9813 15.89996489  2794
STARLINK-36872          
1 67955U 26037Z   26066.16670139 -.01513070  00000+0 -55622-2 0  9993
2 67955  43.0001 213.8703 0001616 273.4879  77.5525 15.90225165  2795
STARLINK-36918          
1 67956U 26037AA  26066.16670139 -.01522390  00000+0 -55714-2 0  9991
2 67956  43.0003 213.8616 0001498 273.0436  81.4908 15.90332984  2791
STARLINK-36829          
1 67957U 26037AB  26066.16670139 -.01507957  00000+0 -55699-2 0  9996
2 67957  43.0000 213.8797 0001678 273.3845  74.1248 15.90121467  2794
STARLINK-36799          
1 67958U 26037AC  26066.16670139 -.01512314  00000+0 -54940-2 0  9998
2 67958  42.9998 213.8540 0001725 276.8415  80.8896 15.90449944  2795
STARLINK-36834          
1 67959U 26037AD  26066.16670139 -.01534001  00000+0 -55233-2 0  9992
2 67959  43.0001 213.8360 0001483 270.8311  93.8479 15.90670108  2792
STARLINK-36841          
1 67960U 26037AE  26066.16670139 -.01524831  00000+0 -55127-2 0  9996
2 67960  42.9998 213.8451 0001586 274.5710  86.5062 15.90571304  2791
STARLINK-36912          
1 67961U 26038A   26066.16670139 -.01688452  82586-3 -42481-2 0  9990
2 67961  97.2751  76.2531 0001027  75.4660 270.2215 15.95742011  2796
